{
  "type": "FeatureCollection",
  "features": [
    {
      "type": "Feature",
      "properties": {
        "norad_id": 33791,
        "name": "COSMOS 2251 DEB",
        "group": "cosmos-2251-debris",
        "lat": 36.121030276068645,
        "lon": -153.89506890237593,
        "alt_km": 746.5111347775692,
        "timestamp": "2025-12-12T11:38:31.805132+00:00",
        "meta_object_name": "COSMOS 2251 DEB",
        "meta_object_id": "1993-036AG",
        "meta_epoch": "2025-12-12T04:35:10.218336",
        "meta_mean_motion": 14.43119213,
        "meta_eccentricity": 0.0030532,
        "meta_inclination": 74.1754,
        "meta_ra_of_asc_node": 38.5914,
        "meta_arg_of_pericenter": 235.9847,
        "meta_mean_anomaly": 179.7175,
        "meta_ephemeris_type": 0,
        "meta_classification_type": "U",
        "meta_norad_cat_id": 33791,
        "meta_element_set_no": 999,
        "meta_rev_at_epoch": 88044,
        "meta_bstar": 0.0011991,
        "meta_mean_motion_dot": 4.024e-05,
        "meta_mean_motion_ddot": 0,
        "tle_line1": "1 33791U 93036AG  25346.19109049  .00004024  00000+0  11991-2 0  9999",
        "tle_line2": "2 33791  74.1754  38.5914 0030532 235.9847 179.7175 14.43119213880444"
      },
      "geometry": {
        "type": "Point",
        "coordinates": [
          -153.89506890237593,
          36.121030276068645
        ]
      }
    },
    {
      "type": "Feature",
      "properties": {
        "norad_id": 33792,
        "name": "COSMOS 2251 DEB",
        "group": "cosmos-2251-debris",
        "lat": -72.59270694971829,
        "lon": -81.33913665245946,
        "alt_km": 1307.8163538547678,
        "timestamp": "2025-12-12T11:38:31.805142+00:00",
        "meta_object_name": "COSMOS 2251 DEB",
        "meta_object_id": "1993-036AH",
        "meta_epoch": "2025-12-12T03:31:17.998176",
        "meta_mean_motion": 13.45821021,
        "meta_eccentricity": 0.0427043,
        "meta_inclination": 73.9009,
        "meta_ra_of_asc_node": 346.2912,
        "meta_arg_of_pericenter": 51.0531,
        "meta_mean_anomaly": 30.5514,
        "meta_ephemeris_type": 0,
        "meta_classification_type": "U",
        "meta_norad_cat_id": 33792,
        "meta_element_set_no": 999,
        "meta_rev_at_epoch": 82434,
        "meta_bstar": 0.0010944,
        "meta_mean_motion_dot": 1.114e-05,
        "meta_mean_motion_ddot": 0,
        "tle_line1": "1 33792U 93036AH  25346.14673609  .00001114  00000+0  10944-2 0  9997",
        "tle_line2": "2 33792  73.9009 346.2912 0427043  51.0531  30.5514 13.45821021824342"
      },
      "geometry": {
        "type": "Point",
        "coordinates": [
          -81.33913665245946,
          -72.59270694971829
        ]
      }
    },
    {
      "type": "Feature",
      "properties": {
        "norad_id": 33793,
        "name": "COSMOS 2251 DEB",
        "group": "cosmos-2251-debris",
        "lat": 39.366078044497215,
        "lon": 164.0138482613341,
        "alt_km": 806.1696347884599,
        "timestamp": "2025-12-12T11:38:31.805153+00:00",
        "meta_object_name": "COSMOS 2251 DEB",
        "meta_object_id": "1993-036AJ",
        "meta_epoch": "2025-12-11T20:52:37.220736",
        "meta_mean_motion": 14.27717804,
        "meta_eccentricity": 0.0078486,
        "meta_inclination": 73.9807,
        "meta_ra_of_asc_node": 151.4986,
        "meta_arg_of_pericenter": 301.7685,
        "meta_mean_anomaly": 177.9026,
        "meta_ephemeris_type": 0,
        "meta_classification_type": "U",
        "meta_norad_cat_id": 33793,
        "meta_element_set_no": 999,
        "meta_rev_at_epoch": 87194,
        "meta_bstar": 0.0010875,
        "meta_mean_motion_dot": 2.747e-05,
        "meta_mean_motion_ddot": 0,
        "tle_line1": "1 33793U 93036AJ  25345.86987524  .00002747  00000+0  10875-2 0  9996",
        "tle_line2": "2 33793  73.9807 151.4986 0078486 301.7685 177.9026 14.27717804871940"
      },
      "geometry": {
        "type": "Point",
        "coordinates": [
          164.0138482613341,
          39.366078044497215
        ]
      }
    },
    {
      "type": "Feature",
      "properties": {
        "norad_id": 33795,
        "name": "COSMOS 2251 DEB",
        "group": "cosmos-2251-debris",
        "lat": -73.01029364991841,
        "lon": 7.679718305662718,
        "alt_km": 566.051310699745,
        "timestamp": "2025-12-12T11:38:31.805164+00:00",
        "meta_object_name": "COSMOS 2251 DEB",
        "meta_object_id": "1993-036AL",
        "meta_epoch": "2025-12-11T09:11:54.284352",
        "meta_mean_motion": 15.05443886,
        "meta_eccentricity": 0.00316691,
        "meta_inclination": 74.0321,
        "meta_ra_of_asc_node": 79.5186,
        "meta_arg_of_pericenter": 163.3792,
        "meta_mean_anomaly": 263.1079,
        "meta_ephemeris_type": 0,
        "meta_classification_type": "U",
        "meta_norad_cat_id": 33795,
        "meta_element_set_no": 999,
        "meta_rev_at_epoch": 90001,
        "meta_bstar": 0.0026255739,
        "meta_mean_motion_dot": 0.00038301,
        "meta_mean_motion_ddot": 0,
        "tle_line1": "1 33795U 93036AL  25345.38326718  .00038301  00000+0  26256-2 0  9992",
        "tle_line2": "2 33795  74.0321  79.5186 0031669 163.3792 263.1079 15.05443886900010"
      },
      "geometry": {
        "type": "Point",
        "coordinates": [
          7.679718305662718,
          -73.01029364991841
        ]
      }
    },
    {
      "type": "Feature",
      "properties": {
        "norad_id": 33797,
        "name": "COSMOS 2251 DEB",
        "group": "cosmos-2251-debris",
        "lat": 39.11916707095351,
        "lon": -158.00732253669236,
        "alt_km": 655.356789470191,
        "timestamp": "2025-12-12T11:38:31.805174+00:00",
        "meta_object_name": "COSMOS 2251 DEB",
        "meta_object_id": "1993-036AN",
        "meta_epoch": "2025-12-12T04:42:01.948896",
        "meta_mean_motion": 14.57845254,
        "meta_eccentricity": 0.0060735,
        "meta_inclination": 74.0479,
        "meta_ra_of_asc_node": 35.9928,
        "meta_arg_of_pericenter": 124.0692,
        "meta_mean_anomaly": 297.3002,
        "meta_ephemeris_type": 0,
        "meta_classification_type": "U",
        "meta_norad_cat_id": 33797,
        "meta_element_set_no": 999,
        "meta_rev_at_epoch": 88977,
        "meta_bstar": 0.00066087,
        "meta_mean_motion_dot": 3.075e-05,
        "meta_mean_motion_ddot": 0,
        "tle_line1": "1 33797U 93036AN  25346.19585589  .00003075  00000+0  66087-3 0  9994",
        "tle_line2": "2 33797  74.0479  35.9928 0060735 124.0692 297.3002 14.57845254889770"
      },
      "geometry": {
        "type": "Point",
        "coordinates": [
          -158.00732253669236,
          39.11916707095351
        ]
      }
    },
    {
      "type": "Feature",
      "properties": {
        "norad_id": 33798,
        "name": "COSMOS 2251 DEB",
        "group": "cosmos-2251-debris",
        "lat": 29.53111080828671,
        "lon": 145.7168506639954,
        "alt_km": 786.1997334004682,
        "timestamp": "2025-12-12T11:38:31.805185+00:00",
        "meta_object_name": "COSMOS 2251 DEB",
        "meta_object_id": "1993-036AP",
        "meta_epoch": "2025-12-12T04:00:54.317376",
        "meta_mean_motion": 14.44613211,
        "meta_eccentricity": 0.0092501,
        "meta_inclination": 74.028,
        "meta_ra_of_asc_node": 136.9714,
        "meta_arg_of_pericenter": 258.4717,
        "meta_mean_anomaly": 279.6321,
        "meta_ephemeris_type": 0,
        "meta_classification_type": "U",
        "meta_norad_cat_id": 33798,
        "meta_element_set_no": 999,
        "meta_rev_at_epoch": 88585,
        "meta_bstar": 0.00026878,
        "meta_mean_motion_dot": 9.51e-06,
        "meta_mean_motion_ddot": 0,
        "tle_line1": "1 33798U 93036AP  25346.16729534  .00000951  00000+0  26878-3 0  9996",
        "tle_line2": "2 33798  74.0280 136.9714 0092501 258.4717 279.6321 14.44613211885856"
      },
      "geometry": {
        "type": "Point",
        "coordinates": [
          145.7168506639954,
          29.53111080828671
        ]
      }
    },
    {
      "type": "Feature",
      "properties": {
        "norad_id": 33799,
        "name": "COSMOS 2251 DEB",
        "group": "cosmos-2251-debris",
        "lat": -58.1844288996949,
        "lon": -70.22455510738857,
        "alt_km": 637.0645415396348,
        "timestamp": "2025-12-12T11:38:31.805195+00:00",
        "meta_object_name": "COSMOS 2251 DEB",
        "meta_object_id": "1993-036AQ",
        "meta_epoch": "2025-12-11T23:43:17.278752",
        "meta_mean_motion": 14.79570676,
        "meta_eccentricity": 0.0023484,
        "meta_inclination": 74.0315,
        "meta_ra_of_asc_node": 83.2662,
        "meta_arg_of_pericenter": 154.1792,
        "meta_mean_anomaly": 323.0751,
        "meta_ephemeris_type": 0,
        "meta_classification_type": "U",
        "meta_norad_cat_id": 33799,
        "meta_element_set_no": 999,
        "meta_rev_at_epoch": 88800,
        "meta_bstar": 0.0017875,
        "meta_mean_motion_dot": 0.00013442,
        "meta_mean_motion_ddot": 0,
        "tle_line1": "1 33799U 93036AQ  25345.98839443  .00013442  00000+0  17875-2 0  9992",
        "tle_line2": "2 33799  74.0315  83.2662 0023484 154.1792 323.0751 14.79570676888007"
      },
      "geometry": {
        "type": "Point",
        "coordinates": [
          -70.22455510738857,
          -58.1844288996949
        ]
      }
    }
  ]
}